COSMOS 2251 DEB         
1 35031U 93036AGU 26073.31089977  .00000459  00000+0  15895-3 0  9993
2 35031  74.0358  90.5416 0018600 170.4815 189.6695 14.38407411666002
COSMOS 2251 DEB         
1 35032U 93036AGV 26073.77452277  .00004710  00000+0  96672-3 0  9997
2 35032  73.8506 189.8960 0066466  19.2183 132.3458 14.59569101890168
COSMOS 2251 DEB         
1 35033U 93036AGW 26073.07142007  .00002985  00000+0  75248-3 0  9996
2 35033  74.0287   4.6364 0012060  93.9882 266.2658 14.51519006672524
COSMOS 2251 DEB         
1 35038U 93036AHB 26074.19400814  .00004699  00000+0  18528-2 0  9999
2 35038  74.1051 236.3794 0112213 197.5365 340.1000 14.25974974868865
COSMOS 2251 DEB         
1 35043U 93036AHG 26074.13149139  .00034438  00000+0  40102-2 0  9996
2 35043  73.9471 222.7184 0087263  46.3206 314.5159 14.82363190687850
COSMOS 2251 DEB         
1 35045U 93036AHJ 26073.73605250  .00001526  00000+0  90403-3 0  9996
2 35045  73.7159 250.1957 0181148 118.6509 243.2974 14.00608179859316
COSMOS 2251 DEB         
1 35060U 93036AHP 26074.31755891  .00000947  00000+0  29719-3 0  9993
2 35060  74.0351  72.8076 0017048 145.2969 214.9303 14.41834077885767
COSMOS 2251 DEB         
1 35061U 93036AHQ 26073.41574670  .00003439  00000+0  58820-3 0  9992
2 35061  74.0447 128.5647 0041504 220.4984 139.3096 14.68698791899207
COSMOS 2251 DEB         
1 35062U 93036AHR 26073.26772193  .00003541  00000+0  14310-2 0  9995
2 35062  74.0779 288.9983 0126219 265.0551  93.6176 14.23966544868013
COSMOS 2251 DEB         
1 35065U 93036AHU 26072.53016718  .00001880  00000+0  53342-3 0  9994
2 35065  74.0211  24.8022 0018548 135.2327 225.0332 14.46068568696638
COSMOS 2251 DEB         
1 35073U 93036AJC 26066.92263932  .00086343  00000+0  52752-2 0  9991
2 35073  73.9945 155.7464 0017188 279.7001  80.2249 15.09712263687608
COSMOS 2251 DEB         
1 35284U 93036AJN 26073.51128270  .00000456  00000+0  15799-3 0  9995
2 35284  74.0461  95.4375 0015983 158.8558 355.8961 14.38430420668450
COSMOS 2251 DEB         
1 35287U 93036AJR 26073.53194056  .00000340  00000+0  12468-3 0  9997
2 35287  74.0279 107.4554 0018223 190.6483 321.4320 14.36462092882100
COSMOS 2251 DEB         
1 35288U 93036AJS 26073.59695470  .00008107  00000+0  14435-2 0  9994
2 35288  73.9479 197.2382 0036563  44.4271 315.9820 14.66773736892247
COSMOS 2251 DEB         
1 35290U 93036AJU 26073.43360670  .00019723  00000+0  23796-2 0  9997
2 35290  74.0019 237.8814 0004718 329.8608  30.2298 14.83752101893164
COSMOS 2251 DEB         
1 35432U 93036AKA 26068.39031916  .01441733  00000+0  11295-1 0  9993
2 35432  74.0050 188.7318 0015577 331.7378  28.2997 15.68318455888353
