[{"OBJECT_NAME":"COSMOS 2251 DEB","OBJECT_ID":"1993-036AGU","EPOCH":"2026-03-14T07:27:41.740128","MEAN_MOTION":14.38407411,"ECCENTRICITY":0.00186006,"INCLINATION":74.0358,"RA_OF_ASC_NODE":90.5416,"ARG_OF_PERICENTER":170.4815,"MEAN_ANOMALY":189.6695,"EPHEMERIS_TYPE":0,"CLASSIFICATION_TYPE":"U","NORAD_CAT_ID":35031,"ELEMENT_SET_NO":999,"REV_AT_EPOCH":66600,"BSTAR":0.00015894694,"MEAN_MOTION_DOT":4.59e-6,"MEAN_MOTION_DDOT":0},{"OBJECT_NAME":"COSMOS 2251 DEB","OBJECT_ID":"1993-036AGV","EPOCH":"2026-03-14T18:35:18.767328","MEAN_MOTION":14.59569101,"ECCENTRICITY":0.00664667,"INCLINATION":73.8506,"RA_OF_ASC_NODE":189.896,"ARG_OF_PERICENTER":19.2183,"MEAN_ANOMALY":132.3458,"EPHEMERIS_TYPE":0,"CLASSIFICATION_TYPE":"U","NORAD_CAT_ID":35032,"ELEMENT_SET_NO":999,"REV_AT_EPOCH":89016,"BSTAR":0.00096671826,"MEAN_MOTION_DOT":4.71e-5,"MEAN_MOTION_DDOT":0},{"OBJECT_NAME":"COSMOS 2251 DEB","OBJECT_ID":"1993-036AGW","EPOCH":"2026-03-14T01:42:50.694048","MEAN_MOTION":14.51519006,"ECCENTRICITY":0.00120608,"INCLINATION":74.0287,"RA_OF_ASC_NODE":4.6364,"ARG_OF_PERICENTER":93.9882,"MEAN_ANOMALY":266.2658,"EPHEMERIS_TYPE":0,"CLASSIFICATION_TYPE":"U","NORAD_CAT_ID":35033,"ELEMENT_SET_NO":999,"REV_AT_EPOCH":67252,"BSTAR":0.00075248116,"MEAN_MOTION_DOT":2.985e-5,"MEAN_MOTION_DDOT":0},{"OBJECT_NAME":"COSMOS 2251 DEB","OBJECT_ID":"1993-036AHB","EPOCH":"2026-03-15T04:39:22.303296","MEAN_MOTION":14.25974974,"ECCENTRICITY":0.01122138,"INCLINATION":74.1051,"RA_OF_ASC_NODE":236.3794,"ARG_OF_PERICENTER":197.5365,"MEAN_ANOMALY":340.1,"EPHEMERIS_TYPE":0,"CLASSIFICATION_TYPE":"U","NORAD_CAT_ID":35038,"ELEMENT_SET_NO":999,"REV_AT_EPOCH":86886,"BSTAR":0.001852802,"MEAN_MOTION_DOT":4.699e-5,"MEAN_MOTION_DDOT":0},{"OBJECT_NAME":"COSMOS 2251 DEB","OBJECT_ID":"1993-036AHG","EPOCH":"2026-03-15T03:09:20.856096","MEAN_MOTION":14.8236319,"ECCENTRICITY":0.00872639,"INCLINATION":73.9471,"RA_OF_ASC_NODE":222.7184,"ARG_OF_PERICENTER":46.3206,"MEAN_ANOMALY":314.5159,"EPHEMERIS_TYPE":0,"CLASSIFICATION_TYPE":"U","NORAD_CAT_ID":35043,"ELEMENT_SET_NO":999,"REV_AT_EPOCH":68785,"BSTAR":0.004010195,"MEAN_MOTION_DOT":0.00034438,"MEAN_MOTION_DDOT":0},{"OBJECT_NAME":"COSMOS 2251 DEB","OBJECT_ID":"1993-036AHJ","EPOCH":"2026-03-14T17:39:54.936000","MEAN_MOTION":14.00608179,"ECCENTRICITY":0.01811487,"INCLINATION":73.7159,"RA_OF_ASC_NODE":250.1957,"ARG_OF_PERICENTER":118.6509,"MEAN_ANOMALY":243.2974,"EPHEMERIS_TYPE":0,"CLASSIFICATION_TYPE":"U","NORAD_CAT_ID":35045,"ELEMENT_SET_NO":999,"REV_AT_EPOCH":85931,"BSTAR":0.00090402643,"MEAN_MOTION_DOT":1.526e-5,"MEAN_MOTION_DDOT":0},{"OBJECT_NAME":"COSMOS 2251 DEB","OBJECT_ID":"1993-036AHP","EPOCH":"2026-03-15T07:37:17.089824","MEAN_MOTION":14.41834077,"ECCENTRICITY":0.00170484,"INCLINATION":74.0351,"RA_OF_ASC_NODE":72.8076,"ARG_OF_PERICENTER":145.2969,"MEAN_ANOMALY":214.9303,"EPHEMERIS_TYPE":0,"CLASSIFICATION_TYPE":"U","NORAD_CAT_ID":35060,"ELEMENT_SET_NO":999,"REV_AT_EPOCH":88576,"BSTAR":0.00029718711,"MEAN_MOTION_DOT":9.47e-6,"MEAN_MOTION_DDOT":0},{"OBJECT_NAME":"COSMOS 2251 DEB","OBJECT_ID":"1993-036AHQ","EPOCH":"2026-03-14T09:58:40.514880","MEAN_MOTION":14.68698791,"ECCENTRICITY":0.00415049,"INCLINATION":74.0447,"RA_OF_ASC_NODE":128.5647,"ARG_OF_PERICENTER":220.4984,"MEAN_ANOMALY":139.3096,"EPHEMERIS_TYPE":0,"CLASSIFICATION_TYPE":"U","NORAD_CAT_ID":35061,"ELEMENT_SET_NO":999,"REV_AT_EPOCH":89920,"BSTAR":0.00058820303,"MEAN_MOTION_DOT":3.439e-5,"MEAN_MOTION_DDOT":0},{"OBJECT_NAME":"COSMOS 2251 DEB","OBJECT_ID":"1993-036AHR","EPOCH":"2026-03-14T06:25:31.174752","MEAN_MOTION":14.23966544,"ECCENTRICITY":0.01262196,"INCLINATION":74.0779,"RA_OF_ASC_NODE":288.9983,"ARG_OF_PERICENTER":265.0551,"MEAN_ANOMALY":93.6176,"EPHEMERIS_TYPE":0,"CLASSIFICATION_TYPE":"U","NORAD_CAT_ID":35062,"ELEMENT_SET_NO":999,"REV_AT_EPOCH":86801,"BSTAR":0.0014309923,"MEAN_MOTION_DOT":3.541e-5,"MEAN_MOTION_DDOT":0},{"OBJECT_NAME":"COSMOS 2251 DEB","OBJECT_ID":"1993-036AHU","EPOCH":"2026-03-13T12:43:26.444352","MEAN_MOTION":14.46068568,"ECCENTRICITY":0.00185484,"INCLINATION":74.0211,"RA_OF_ASC_NODE":24.8022,"ARG_OF_PERICENTER":135.2327,"MEAN_ANOMALY":225.0332,"EPHEMERIS_TYPE":0,"CLASSIFICATION_TYPE":"U","NORAD_CAT_ID":35065,"ELEMENT_SET_NO":999,"REV_AT_EPOCH":69663,"BSTAR":0.00053341827,"MEAN_MOTION_DOT":1.88e-5,"MEAN_MOTION_DDOT":0},{"OBJECT_NAME":"COSMOS 2251 DEB","OBJECT_ID":"1993-036AJC","EPOCH":"2026-03-07T22:08:36.037248","MEAN_MOTION":15.09712263,"ECCENTRICITY":0.00171889,"INCLINATION":73.9945,"RA_OF_ASC_NODE":155.7464,"ARG_OF_PERICENTER":279.7001,"MEAN_ANOMALY":80.2249,"EPHEMERIS_TYPE":0,"CLASSIFICATION_TYPE":"U","NORAD_CAT_ID":35073,"ELEMENT_SET_NO":999,"REV_AT_EPOCH":68760,"BSTAR":0.00527522,"MEAN_MOTION_DOT":0.00086343,"MEAN_MOTION_DDOT":0},{"OBJECT_NAME":"COSMOS 2251 DEB","OBJECT_ID":"1993-036AJN","EPOCH":"2026-03-14T12:16:14.825280","MEAN_MOTION":14.3843042,"ECCENTRICITY":0.00159831,"INCLINATION":74.0461,"RA_OF_ASC_NODE":95.4375,"ARG_OF_PERICENTER":158.8558,"MEAN_ANOMALY":355.8961,"EPHEMERIS_TYPE":0,"CLASSIFICATION_TYPE":"U","NORAD_CAT_ID":35284,"ELEMENT_SET_NO":999,"REV_AT_EPOCH":66845,"BSTAR":0.00015799456,"MEAN_MOTION_DOT":4.56e-6,"MEAN_MOTION_DDOT":0},{"OBJECT_NAME":"COSMOS 2251 DEB","OBJECT_ID":"1993-036AJR","EPOCH":"2026-03-14T12:45:59.664384","MEAN_MOTION":14.36462092,"ECCENTRICITY":0.00182234,"INCLINATION":74.0279,"RA_OF_ASC_NODE":107.4554,"ARG_OF_PERICENTER":190.6483,"MEAN_ANOMALY":321.432,"EPHEMERIS_TYPE":0,"CLASSIFICATION_TYPE":"U","NORAD_CAT_ID":35287,"ELEMENT_SET_NO":999,"REV_AT_EPOCH":88210,"BSTAR":0.00012467767,"MEAN_MOTION_DOT":3.4e-6,"MEAN_MOTION_DDOT":0},{"OBJECT_NAME":"COSMOS 2251 DEB","OBJECT_ID":"1993-036AJS","EPOCH":"2026-03-14T14:19:36.886080","MEAN_MOTION":14.66773736,"ECCENTRICITY":0.00365632,"INCLINATION":73.9479,"RA_OF_ASC_NODE":197.2382,"ARG_OF_PERICENTER":44.4271,"MEAN_ANOMALY":315.982,"EPHEMERIS_TYPE":0,"CLASSIFICATION_TYPE":"U","NORAD_CAT_ID":35288,"ELEMENT_SET_NO":999,"REV_AT_EPOCH":89224,"BSTAR":0.0014435231,"MEAN_MOTION_DOT":8.107e-5,"MEAN_MOTION_DDOT":0},{"OBJECT_NAME":"COSMOS 2251 DEB","OBJECT_ID":"1993-036AJU","EPOCH":"2026-03-14T10:24:23.618880","MEAN_MOTION":14.83752101,"ECCENTRICITY":0.00047185,"INCLINATION":74.0019,"RA_OF_ASC_NODE":237.8814,"ARG_OF_PERICENTER":329.8608,"MEAN_ANOMALY":30.2298,"EPHEMERIS_TYPE":0,"CLASSIFICATION_TYPE":"U","NORAD_CAT_ID":35290,"ELEMENT_SET_NO":999,"REV_AT_EPOCH":89316,"BSTAR":0.0023795817,"MEAN_MOTION_DOT":0.00019723,"MEAN_MOTION_DDOT":0},{"OBJECT_NAME":"COSMOS 2251 DEB","OBJECT_ID":"1993-036AKA","EPOCH":"2026-03-09T09:22:03.575424","MEAN_MOTION":15.68318455,"ECCENTRICITY":0.0015577,"INCLINATION":74.005,"RA_OF_ASC_NODE":188.7318,"ARG_OF_PERICENTER":331.7378,"MEAN_ANOMALY":28.2997,"EPHEMERIS_TYPE":0,"CLASSIFICATION_TYPE":"U","NORAD_CAT_ID":35432,"ELEMENT_SET_NO":999,"REV_AT_EPOCH":88835,"BSTAR":0.011294709,"MEAN_MOTION_DOT":0.01441733,"MEAN_MOTION_DDOT":0}]
